[{"OBJECT_NAME":"STARLINK-31056","OBJECT_ID":"2023-192V","EPOCH":"2025-09-22T19:15:54.975168","MEAN_MOTION":15.30172677,"ECCENTRICITY":0.00017248,"INCLINATION":53.1608,"RA_OF_ASC_NODE":122.3814,"ARG_OF_PERICENTER":98.6228,"MEAN_ANOMALY":261.4968,"EPHEMERIS_TYPE":0,"CLASSIFICATION_TYPE":"U","NORAD_CAT_ID":58550,"ELEMENT_SET_NO":999,"REV_AT_EPOCH":10028,"BSTAR":-3.4712439e-5,"MEAN_MOTION_DOT":-1.386e-5,"MEAN_MOTION_DDOT":0},{"OBJECT_NAME":"STARLINK-30999","OBJECT_ID":"2023-192W","EPOCH":"2025-09-22T19:52:27.684480","MEAN_MOTION":15.30193173,"ECCENTRICITY":0.00012406,"INCLINATION":53.1597,"RA_OF_ASC_NODE":112.4768,"ARG_OF_PERICENTER":95.7835,"MEAN_ANOMALY":264.3307,"EPHEMERIS_TYPE":0,"CLASSIFICATION_TYPE":"U","NORAD_CAT_ID":58551,"ELEMENT_SET_NO":999,"REV_AT_EPOCH":10042,"BSTAR":4.4791416e-5,"MEAN_MOTION_DOT":9.67e-6,"MEAN_MOTION_DDOT":0},{"OBJECT_NAME":"STARLINK-31046","OBJECT_ID":"2023-192X","EPOCH":"2025-09-22T23:35:25.057824","MEAN_MOTION":15.30191792,"ECCENTRICITY":0.0001086,"INCLINATION":53.1596,"RA_OF_ASC_NODE":122.0781,"ARG_OF_PERICENTER":98.805,"MEAN_ANOMALY":261.3073,"EPHEMERIS_TYPE":0,"CLASSIFICATION_TYPE":"U","NORAD_CAT_ID":58552,"ELEMENT_SET_NO":999,"REV_AT_EPOCH":10030,"BSTAR":2.8111647e-5,"MEAN_MOTION_DOT":4.73e-6,"MEAN_MOTION_DDOT":0},{"OBJECT_NAME":"STARLINK-31044","OBJECT_ID":"2023-200A","EPOCH":"2025-09-23T00:00:17.680032","MEAN_MOTION":15.02546321,"ECCENTRICITY":0.00010171,"INCLINATION":43.0038,"RA_OF_ASC_NODE":1.0539,"ARG_OF_PERICENTER":256.5155,"MEAN_ANOMALY":103.5574,"EPHEMERIS_TYPE":0,"CLASSIFICATION_TYPE":"U","NORAD_CAT_ID":58589,"ELEMENT_SET_NO":999,"REV_AT_EPOCH":9837,"BSTAR":-2.2076066e-5,"MEAN_MOTION_DOT":-5.02e-6,"MEAN_MOTION_DDOT":0},{"OBJECT_NAME":"STARLINK-31062","OBJECT_ID":"2023-200B","EPOCH":"2025-09-22T13:16:17.651712","MEAN_MOTION":15.02540849,"ECCENTRICITY":0.00016595,"INCLINATION":43.0039,"RA_OF_ASC_NODE":5.444,"ARG_OF_PERICENTER":269.1557,"MEAN_ANOMALY":90.9095,"EPHEMERIS_TYPE":0,"CLASSIFICATION_TYPE":"U","NORAD_CAT_ID":58590,"ELEMENT_SET_NO":999,"REV_AT_EPOCH":9828,"BSTAR":-5.044614e-5,"MEAN_MOTION_DOT":-8.85e-6,"MEAN_MOTION_DDOT":0},{"OBJECT_NAME":"STARLINK-31096","OBJECT_ID":"2023-200D","EPOCH":"2025-09-22T23:30:27.240480","MEAN_MOTION":15.02535898,"ECCENTRICITY":7.752e-5,"INCLINATION":43.0032,"RA_OF_ASC_NODE":2.6294,"ARG_OF_PERICENTER":268.7352,"MEAN_ANOMALY":91.3401,"EPHEMERIS_TYPE":0,"CLASSIFICATION_TYPE":"U","NORAD_CAT_ID":58592,"ELEMENT_SET_NO":999,"REV_AT_EPOCH":9835,"BSTAR":7.4955126e-5,"MEAN_MOTION_DOT":8.09e-6,"MEAN_MOTION_DDOT":0},{"OBJECT_NAME":"STARLINK-31094","OBJECT_ID":"2023-200E","EPOCH":"2025-09-22T14:11:42.639936","MEAN_MOTION":15.02545321,"ECCENTRICITY":0.00011383,"INCLINATION":43.0048,"RA_OF_ASC_NODE":4.0265,"ARG_OF_PERICENTER":272.7933,"MEAN_ANOMALY":87.2779,"EPHEMERIS_TYPE":0,"CLASSIFICATION_TYPE":"U","NORAD_CAT_ID":58593,"ELEMENT_SET_NO":999,"REV_AT_EPOCH":9830,"BSTAR":0.00011187488,"MEAN_MOTION_DOT":1.308e-5,"MEAN_MOTION_DDOT":0},{"OBJECT_NAME":"STARLINK-31075","OBJECT_ID":"2023-200F","EPOCH":"2025-09-23T05:49:48.938592","MEAN_MOTION":15.02541322,"ECCENTRICITY":0.00012165,"INCLINATION":43.0048,"RA_OF_ASC_NODE":0.3042,"ARG_OF_PERICENTER":267.0012,"MEAN_ANOMALY":93.0692,"EPHEMERIS_TYPE":0,"CLASSIFICATION_TYPE":"U","NORAD_CAT_ID":58594,"ELEMENT_SET_NO":999,"REV_AT_EPOCH":9840,"BSTAR":5.3838368e-5,"MEAN_MOTION_DOT":5.24e-6,"MEAN_MOTION_DDOT":0},{"OBJECT_NAME":"STARLINK-30857","OBJECT_ID":"2023-200G","EPOCH":"2025-09-22T23:31:41.941056","MEAN_MOTION":15.02544121,"ECCENTRICITY":9.947e-5,"INCLINATION":43.0075,"RA_OF_ASC_NODE":1.7832,"ARG_OF_PERICENTER":263.9466,"MEAN_ANOMALY":96.1263,"EPHEMERIS_TYPE":0,"CLASSIFICATION_TYPE":"U","NORAD_CAT_ID":58595,"ELEMENT_SET_NO":999,"REV_AT_EPOCH":9836,"BSTAR":0.00010320054,"MEAN_MOTION_DOT":1.191e-5,"MEAN_MOTION_DDOT":0},{"OBJECT_NAME":"STARLINK-31059","OBJECT_ID":"2023-200H","EPOCH":"2025-09-22T15:55:28.423488","MEAN_MOTION":15.27585652,"ECCENTRICITY":0.00013757,"INCLINATION":43.0055,"RA_OF_ASC_NODE":241.0476,"ARG_OF_PERICENTER":290.3564,"MEAN_ANOMALY":69.714,"EPHEMERIS_TYPE":0,"CLASSIFICATION_TYPE":"U","NORAD_CAT_ID":58596,"ELEMENT_SET_NO":999,"REV_AT_EPOCH":9975,"BSTAR":0.00010787086,"MEAN_MOTION_DOT":2.708e-5,"MEAN_MOTION_DDOT":0},{"OBJECT_NAME":"STARLINK-31087","OBJECT_ID":"2023-200J","EPOCH":"2025-09-23T05:45:01.296576","MEAN_MOTION":15.02542856,"ECCENTRICITY":0.00011106,"INCLINATION":43.0009,"RA_OF_ASC_NODE":0.286,"ARG_OF_PERICENTER":259.0259,"MEAN_ANOMALY":101.0459,"EPHEMERIS_TYPE":0,"CLASSIFICATION_TYPE":"U","NORAD_CAT_ID":58597,"ELEMENT_SET_NO":999,"REV_AT_EPOCH":9829,"BSTAR":1.3565724e-5,"MEAN_MOTION_DOT":-2.0e-7,"MEAN_MOTION_DDOT":0},{"OBJECT_NAME":"STARLINK-31079","OBJECT_ID":"2023-200K","EPOCH":"2025-09-23T05:32:28.244544","MEAN_MOTION":15.08810202,"ECCENTRICITY":0.00076488,"INCLINATION":43.004,"RA_OF_ASC_NODE":357.6891,"ARG_OF_PERICENTER":330.0468,"MEAN_ANOMALY":29.9939,"EPHEMERIS_TYPE":0,"CLASSIFICATION_TYPE":"U","NORAD_CAT_ID":58598,"ELEMENT_SET_NO":999,"REV_AT_EPOCH":9843,"BSTAR":0.0044624519,"MEAN_MOTION_DOT":0.00071941,"MEAN_MOTION_DDOT":0},{"OBJECT_NAME":"STARLINK-31052","OBJECT_ID":"2023-200M","EPOCH":"2025-09-23T05:35:25.882080","MEAN_MOTION":15.02541855,"ECCENTRICITY":0.00012981,"INCLINATION":43.0099,"RA_OF_ASC_NODE":0.2387,"ARG_OF_PERICENTER":254.5932,"MEAN_ANOMALY":105.4767,"EPHEMERIS_TYPE":0,"CLASSIFICATION_TYPE":"U","NORAD_CAT_ID":58600,"ELEMENT_SET_NO":999,"REV_AT_EPOCH":9840,"BSTAR":3.8994763e-5,"MEAN_MOTION_DOT":3.23e-6,"MEAN_MOTION_DDOT":0},{"OBJECT_NAME":"STARLINK-31074","OBJECT_ID":"2023-200N","EPOCH":"2025-09-23T05:30:38.144160","MEAN_MOTION":15.02545879,"ECCENTRICITY":0.00012707,"INCLINATION":43.0042,"RA_OF_ASC_NODE":0.2107,"ARG_OF_PERICENTER":263.7243,"MEAN_ANOMALY":96.3455,"EPHEMERIS_TYPE":0,"CLASSIFICATION_TYPE":"U","NORAD_CAT_ID":58601,"ELEMENT_SET_NO":999,"REV_AT_EPOCH":9840,"BSTAR":-5.87627e-6,"MEAN_MOTION_DOT":-2.83e-6,"MEAN_MOTION_DDOT":0},{"OBJECT_NAME":"STARLINK-31071","OBJECT_ID":"2023-200P","EPOCH":"2025-09-22T09:45:05.023296","MEAN_MOTION":15.27582307,"ECCENTRICITY":9.73e-5,"INCLINATION":43.0004,"RA_OF_ASC_NODE":239.0515,"ARG_OF_PERICENTER":264.2834,"MEAN_ANOMALY":95.7907,"EPHEMERIS_TYPE":0,"CLASSIFICATION_TYPE":"U","NORAD_CAT_ID":58602,"ELEMENT_SET_NO":999,"REV_AT_EPOCH":9975,"BSTAR":5.3321273e-5,"MEAN_MOTION_DOT":1.206e-5,"MEAN_MOTION_DDOT":0},{"OBJECT_NAME":"STARLINK-31080","OBJECT_ID":"2023-200Q","EPOCH":"2025-09-22T13:28:33.700224","MEAN_MOTION":15.02538689,"ECCENTRICITY":0.00012007,"INCLINATION":43.004,"RA_OF_ASC_NODE":3.7988,"ARG_OF_PERICENTER":267.6924,"MEAN_ANOMALY":92.3781,"EPHEMERIS_TYPE":0,"CLASSIFICATION_TYPE":"U","NORAD_CAT_ID":58603,"ELEMENT_SET_NO":999,"REV_AT_EPOCH":9811,"BSTAR":7.010269e-5,"MEAN_MOTION_DOT":7.44e-6,"MEAN_MOTION_DDOT":0}]
