STARLINK-31056          
1 58550U 23192V   25265.80271962 -.00001386  00000+0 -34712-4 0  9995
2 58550  53.1608 122.3814 0001724  98.6228 261.4968 15.30172677100284
STARLINK-30999          
1 58551U 23192W   25265.82809820  .00000967  00000+0  44791-4 0  9998
2 58551  53.1597 112.4768 0001240  95.7835 264.3307 15.30193173100424
STARLINK-31046          
1 58552U 23192X   25265.98292891  .00000473  00000+0  28112-4 0  9991
2 58552  53.1596 122.0781 0001086  98.8050 261.3073 15.30191792100306
STARLINK-31044          
1 58589U 23200A   25266.00020463 -.00000502  00000+0 -22076-4 0  9997
2 58589  43.0038   1.0539 0001017 256.5155 103.5574 15.02546321 98372
STARLINK-31062          
1 58590U 23200B   25265.55298208 -.00000885  00000+0 -50446-4 0  9998
2 58590  43.0039   5.4440 0001659 269.1557  90.9095 15.02540849 98288
STARLINK-31096          
1 58592U 23200D   25265.97948195  .00000809  00000+0  74955-4 0  9998
2 58592  43.0032   2.6294 0000775 268.7352  91.3401 15.02535898 98357
STARLINK-31094          
1 58593U 23200E   25265.59146574  .00001308  00000+0  11187-3 0  9990
2 58593  43.0048   4.0265 0001138 272.7933  87.2779 15.02545321 98302
STARLINK-31075          
1 58594U 23200F   25266.24292753  .00000524  00000+0  53838-4 0  9994
2 58594  43.0048   0.3042 0001216 267.0012  93.0692 15.02541322 98404
STARLINK-30857          
1 58595U 23200G   25265.98034654  .00001191  00000+0  10320-3 0  9998
2 58595  43.0075   1.7832 0000994 263.9466  96.1263 15.02544121 98360
STARLINK-31059          
1 58596U 23200H   25265.66352342  .00002708  00000+0  10787-3 0  9993
2 58596  43.0055 241.0476 0001375 290.3564  69.7140 15.27585652 99754
STARLINK-31087          
1 58597U 23200J   25266.23959834 -.00000020  00000+0  13566-4 0  9992
2 58597  43.0009   0.2860 0001110 259.0259 101.0459 15.02542856 98299
STARLINK-31079          
1 58598U 23200K   25266.23088246  .00071941  00000+0  44625-2 0  9990
2 58598  43.0040 357.6891 0007648 330.0468  29.9939 15.08810202 98438
STARLINK-31052          
1 58600U 23200M   25266.23293845  .00000323  00000+0  38995-4 0  9998
2 58600  43.0099   0.2387 0001298 254.5932 105.4767 15.02541855 98403
STARLINK-31074          
1 58601U 23200N   25266.22960815 -.00000283  00000+0 -58763-5 0  9999
2 58601  43.0042   0.2107 0001270 263.7243  96.3455 15.02545879 98401
STARLINK-31071          
1 58602U 23200P   25265.40630814  .00001206  00000+0  53321-4 0  9990
2 58602  43.0004 239.0515 0000973 264.2834  95.7907 15.27582307 99754
STARLINK-31080          
1 58603U 23200Q   25265.56150116  .00000744  00000+0  70103-4 0  9993
2 58603  43.0040   3.7988 0001200 267.6924  92.3781 15.02538689 98115
